K13HF6V  5.2   0.15 K194R 280.96431  181.36828  168.63839   18.13148  0.1767768  0.00298632  47.7578798  1 E2018-Y78   127  10 2001-2018 0.13 M-v 38h MPCLINUX   040A          2013 HV156         20180521 2485066.59182 

K13J63W  5.2   0.15 K194R 307.61164   17.82215  309.39273    7.73938  0.2551098  0.00292079  48.4695596  3 MPO293262     8   2 2013-2014 0.10 M-v 38h MPCW       000A          2013 JW63          20140502 2476537.41923 

K14A55M  5.2   0.15 K194R 269.01050  113.07933  131.83776    7.18355  0.1423797  0.00305660  47.0230084  1 MPO456881   108  12 2004-2018 0.14 M-v 38h MPCLINUX   040A          2014 AM55          20180114 2488368.70650 

K14Qi1W  5.2   0.15 K194R 359.82226  202.26417  162.71192   28.79669  0.1029771  0.00334239  44.3027882  1 MPO456926   164  12 2001-2018 0.15 M-v 38h MPCLINUX   040A          2014 QW441         20180911 2458653.67895 

K14SY9V  5.2   0.15 K194R 294.25868   24.71768   56.47468   17.78537  0.4297940  0.00205868  61.1988535  7 MPO419482    13   2 2014-2015 0.17 M-v 38h MPCLINUX   000A          2014 SV349         20150522 2490535.46551 

K08UX2A  5.2   0.15 K08BA   0.04932  287.45030   97.50974   32.10959  0.0150827  0.00328379  44.8283493  E MPO152521     6   1   57 days 0.46         MPCM       200A          2008 UA332         20081222 2454765.48036

00015    5.28  0.23 K194R 283.38773   98.49868  292.93432   11.75243  0.1860843  0.22923830   2.6441003  0 MPO452155  2291  78 1851-2018 0.55 M-v 38h MPCLINUX   0000     (15) Eunomia            20180718 2458934.70362

15874    5.3   0.15 K194R   8.66419  184.21317  217.83140   24.01275  0.5760542  0.00131453  82.5321982  0 MPO431681   260  15 1996-2017 0.44 M-v 38h MPCLINUX   000A  (15874) 1996 TL66          20171225 2452009.25618 

55638    5.3   0.15 K194R  26.26861  206.36616  199.86501   16.33673  0.2845070  0.00403841  39.0537379  0 MPO432112   255  19 1990-2017 0.25 M-v 38h MPCLINUX   000A  (55638) 2002 VE95          20171208 2452095.79269 

79360    5.3   0.15 K194R 310.08226  248.49781  304.44186    2.25507  0.0108362  0.00340595  43.7499251  2 MPO385313   304  18 1997-2016 0.39 M-v 38h MPCLINUX   000A  (79360) Sila-Nunam         20160204 2473256.75532 1997 CS29 

V2645    5.3   0.15 K194R   4.12210  352.73048  205.03657   18.86373  0.3094251  0.00297491  47.8799079  0 MPO450244   138  13 1983-2018 0.29 M-v 38h MPCLINUX   000A (312645) 2010 EP65          20180512 2457214.87359 

i4745    5.3   0.15 K194R 299.44046  120.75986  207.43496   15.05709  0.1859360  0.00394458  39.6706079  1 MPO419204   197   9 2002-2015 0.17 M-v 38h MPCLINUX   000A (444745) 2007 JF43          20150624 2473953.40658 

l1196    5.3   0.15 K194R  44.33165  299.97246  331.63813   13.62658  0.0059422  0.00376317  40.9354795  2 MPO383337   111   6 2010-2015 0.22 M-v 38h MPCW       000A (471196) 2010 PK66          20150725 2446819.88030 

l1210    5.3   0.15 K194R   4.10113  259.25892  157.98937   27.80801  0.2730013  0.00276418  50.2834254  1 MPO434704    55   7 2002-2017 0.24 M-v 38h MPCLINUX   000A (471210) 2010 VW11          20171220 2457116.78740 

n3480    5.3   0.15 K194R 357.06661   54.65644  131.04901   17.20121  0.0196169  0.00385290  40.2974348  1 MPO404556    61   7 2003-2017 0.15 M-v 38h MPCLINUX   000A (493480) 2014 YZ49          20170418 2459361.84600 

q3678    5.3   0.15 K194R 329.38121  275.26953  292.41652    3.59079  0.0115241  0.00318490  45.7514903  1 MPO450787   109   9 2002-2018 0.14 M-v 38h MPCLINUX   000A (523678) 2013 XB26          20180211 2468214.23670 

q3690    5.3   0.15 K194R 283.89557  318.57058  303.77475    6.78950  0.0712637  0.00303823  47.2123886  1 MPO450791   111   9 2001-2018 0.13 M-v 38h MPCLINUX   000A (523690) 2014 DN143         20180211 2483649.68373 

q3721    5.3   0.15 K194R 149.57258   24.39249  146.72431    1.46941  0.0521935  0.00335849  44.1611546  2 MPO450802   119   8 2010-2017 0.11 M-v 38h MPCLINUX   000A (523721) 2014 LR28          20171210 2414063.64316 

K10JC4K  5.3   0.15 K194R 275.07114   70.38785  277.49183   15.51868  0.0862251  0.00388310  40.0882478  4 MPO200859    15   2 2010-2011 0.18 M-v 38h MPCW       000A          2010 JK124         20110505 2480471.90687 

K14C23O  5.3   0.15 K194R  91.41122   49.83989   20.37897    7.92560  0.1721362  0.00338849  43.9000743  1 MPO456882   159  10 2002-2018 0.14 M-v 38h MPCLINUX   040A          2014 CO23          20180413 2431622.80551 

K14Wo9W  5.3   0.15 K194R 154.18395  171.49970  110.33454   20.44155  0.1365433  0.00356372  42.4489775  3 E2018-Y78    49   7 2010-2017 0.15 M-v 38h MPCLINUX   000A          2014 WW509         20170313 2415335.36825 

K02PE9J  5.3   0.15 K027P 180.64960  193.43564  316.40208    9.66123  0.0762016  0.00322608  45.3613454  E MPO 38365     3   1    1 days 0.11         MPCM       200A          2002 PJ149         20020812 2508075.78828

K03Q91M  5.3   0.15 K039I   0.07729  343.42916    8.58356    2.94991  0.0904246  0.00323830  45.2472015  E MPO 57930     5   1   58 days 0.11         MPCM       200A          2003 QM91          20031022 2452876.63254

00003    5.33  0.32 K194R  34.92504  248.13861  169.85274   12.98892  0.2569423  0.22601887   2.6691496  0 MPO452155  6948 105 1821-2018 0.59 M-v 38h MPCLINUX   0000      (3) Juno               20180811 2458445.97728

I2934    5.4   0.15 K194R  83.61525  257.57033  244.85863   11.57225  0.1073526  0.00331521  44.5446573  3 MPO186770    40   5 2002-2008 0.37 M-v 38h MPCMEL     400A (182934) 2002 GJ32          20080304 2433378.71851 

R5809    5.4   0.15 K194R  83.06497  128.85612  108.75854    1.54764  0.0858162  0.00337131  44.0491162  2 MPO418466   123   9 2001-2014 0.32 M-v 38h MPCLINUX   400A (275809) 2001 QY297         20140919 2433961.64555 

l0596    5.4   0.15 K194R 359.97927   41.08739  285.01829   23.10377  0.1943473  0.00322445  45.3766474  2 MPO383183    56   6 2008-2015 0.31 M-v 38h MPCW       000A (470596) 2008 NW4           20150728 2458606.92910 

l1954    5.4   0.15 K194R 100.37576  253.50456  352.42611   28.07741  0.1340115  0.00344847  43.3895472  2 MPO383526    78   5 2009-2015 0.18 M-v 38h MPCW       000A (471954) 2013 RM98          20151011 2429492.57749 

m3002    5.4   0.15 K194R 311.75408  268.34745  185.94116   37.90985  0.0796304  0.00307469  46.8383696  1 MPO428154    94  10 1998-2016 0.12 M-v 38h MPCLINUX   000A (483002) 2014 QS441         20160926 2474292.27129 

q3601    5.4   0.15 K194R  47.31650  344.00438  341.21685   20.73383  0.2102466  0.00304484  47.1439564  1 MPO450749   135  13 1996-2018 0.22 M-v 38h MPCLINUX   000A (523601) 2003 UY413         20180130 2443060.39884 1996 TC68 

q3659    5.4   0.15 K194R 323.06023   22.14900  266.45757   10.84651  0.0935955  0.00344932  43.3824086  2 MPO450776    81   8 2010-2017 0.22 M-v 38h MPCLINUX   000A (523659) 2012 HG84          20170626 2469309.85262 

q3738    5.4   0.15 K194R  99.88919   95.68843  202.64379   17.31066  0.1552532  0.00348879  43.0545873  2 MPO450808    81   8 2010-2018 0.14 M-v 38h MPCLINUX   000A (523738) 2014 SH349         20180131 2429968.29029 

q3745    5.4   0.15 K194R 160.97191  265.12166   52.76871    1.69516  0.0120582  0.00351496  42.8406515  1 MPO450811   149   9 2010-2018 0.11 M-v 38h MPCLINUX   000A (523745) 2014 TD86          20180218 2412803.49013 

q3773    5.4   0.15 K194R  33.48688  262.02091  186.62305   27.54765  0.1633616  0.00358258  42.2998727  1 MPO450821   129   8 2010-2018 0.14 M-v 38h MPCLINUX   000A (523773) 2014 XS40          20180115 2449253.15038 

q3777    5.4   0.15 K194R 358.63945   87.21415   72.96476   18.20342  0.5522726  0.00138372  79.7571529  1 MPO450824   151   8 2010-2018 0.13 M-v 38h MPCLINUX   000A (523777) 2014 YF50          20180525 2459583.76949 

K02CO8Y  5.4   0.15 K194R 233.76623  337.69131  300.77805    7.06086  0.1496950  0.00314716  46.1165999  2 E2018-X68   110  13 2002-2018 0.32 M-v 38h MPCLINUX   040A          2002 CY248         20180307 2498711.64041 

K10MB6Q  5.4   0.15 K194R 234.95670  166.79410    5.16720   30.82768  0.1779405  0.00362729  41.9515692  2 E2018-Y78    72   8 2010-2018 0.18 M-v 38h MPCLINUX   000A          2010 MQ116         20180101 2493074.28143 

K10VM4W  5.4   0.15 K194R 186.30031  148.19974  102.35489    8.91498  0.1429734  0.00342439  43.5926955  3 MPO428287    29   5 2006-2013 0.16 M-v 38h MPCLINUX   000A          2010 VW224         20131101 2509326.10523 

K14E52A  5.4   0.15 K194R 342.06572   89.70820  140.66854   18.98853  0.1021697  0.00367302  41.6026193  1 MPO456885   131  11 2002-2018 0.12 M-v 38h MPCLINUX   040A          2014 EA52          20180311 2463483.23346 

K14F71Y  5.4   0.15 K194R  50.56638  243.76391  241.96039   18.51943  0.2060272  0.00342373  43.5983331  1 MPO456886   122   9 2010-2018 0.20 M-v 38h MPCLINUX   040A          2014 FY71          20180410 2443830.98748 

K14G53X  5.4   0.15 K194R 355.90288  130.10679   97.25022   14.49982  0.1445376  0.00375735  40.9777562  0 MPO456888   157  10 2002-2018 0.13 M-v 38h MPCLINUX   040A          2014 GX53          20180512 2459690.94261 

K14L28O  5.4   0.15 K194R 310.65842  105.45835  287.08960   25.54227  0.1182925  0.00348537  43.0827274  1 MPO456897    99   9 2010-2018 0.13 M-v 38h MPCLINUX   040A          2014 LO28          20180812 2472757.55391 

K14UM5N  5.4   0.15 K194R 327.13989  323.40868   68.51870   53.11384  0.3569844  0.00212510  59.9170164  3 MPO411942    13   2 2014-2016 0.07 M-v 38h MPCW       000A          2014 UN225         20160930 2474063.35351 

K01QT7S  5.4   0.15 K018J   0.00000   13.88171  309.80124    5.22553  0.0000000  0.00340043  43.7972177  E MPO 41721     6   1   23 days 0.13         MPCM       200A          2001 QS297         20010912 2452140.50000

00010    5.43  0.15 K194R 152.18487  312.31518  283.20218    3.83156  0.1124606  0.17700696   3.1415392  0 MPO458824  3079  90 1849-2018 0.58 M-v 38h MPCLINUX   0000     (10) Hygiea             20181019 2457740.73199 A900 GA   

